[{"OBJECT_NAME":"STARLINK-34834","OBJECT_ID":"2025-184Y","EPOCH":"2026-03-09T17:52:50.057184","MEAN_MOTION":15.05658213,"ECCENTRICITY":0.00013925,"INCLINATION":97.602,"RA_OF_ASC_NODE":122.6313,"ARG_OF_PERICENTER":87.4963,"MEAN_ANOMALY":272.6423,"EPHEMERIS_TYPE":0,"CLASSIFICATION_TYPE":"U","NORAD_CAT_ID":65295,"ELEMENT_SET_NO":999,"REV_AT_EPOCH":3130,"BSTAR":0.00046757904,"MEAN_MOTION_DOT":6.694e-5,"MEAN_MOTION_DDOT":0},{"OBJECT_NAME":"COSMOS 886 DEB","OBJECT_ID":"1976-126AN","EPOCH":"2026-03-09T12:28:16.403520","MEAN_MOTION":13.47851871,"ECCENTRICITY":0.0740468,"INCLINATION":65.8391,"RA_OF_ASC_NODE":149.6537,"ARG_OF_PERICENTER":339.428,"MEAN_ANOMALY":17.8327,"EPHEMERIS_TYPE":0,"CLASSIFICATION_TYPE":"U","NORAD_CAT_ID":9826,"ELEMENT_SET_NO":999,"REV_AT_EPOCH":34894,"BSTAR":0.00081724115,"MEAN_MOTION_DOT":2.801e-5,"MEAN_MOTION_DDOT":0}]
